PRC TEST SPACECRAFT 4   
1 67689U 26024A   26047.19046700  .00000211  00000+0  44761-4 0  9995
2 67689  49.9851 123.6940 0006191 277.3011  82.7226 14.91673778  1378
CZ-2F R/B               
1 67690U 26024B   26047.20509529  .00024321  00000+0  45113-3 0  9991
2 67690  49.9874 122.2826 0177089 185.8809 174.0072 15.33403625  1391
CZ-2F DEB               
1 67691U 26024C   26047.16928954  .00711547  10306-4  93238-3 0  9993
2 67691  49.9080 120.4884 0250026 192.9787 166.4672 15.67546662  1401
CZ-2F DEB               
1 67692U 26024D   26046.48234456  .00250388  00000+0  50496-2 0  9999
2 67692  50.3154 127.0852 0264941 192.7826 266.1908 15.15710043   623
STARLINK-36748          
1 67693U 26025A   26047.16667824 -.01316054  53942-3 -27484-2 0  9990
2 67693  97.2800 157.4949 0001646  61.0324 148.2884 15.99093408  2387
STARLINK-36753          
1 67694U 26025B   26047.16667824 -.01281849  51781-3 -25722-2 0  9996
2 67694  97.2792 157.5003 0001606  58.9576 162.6694 15.99800029  2542
STARLINK-36750          
1 67695U 26025C   26047.16667824 -.01296801  52640-3 -26691-2 0  9992
2 67695  97.2797 157.4967 0001504  65.2456 148.5713 15.99350454  2380
STARLINK-36401          
1 67696U 26025D   26047.16667824 -.01279390  51457-3 -26029-2 0  9997
2 67696  97.2795 157.4983 0001546  66.0066 151.5069 15.99554461  2381
STARLINK-36704          
1 67697U 26025E   26047.16667824 -.01264600  50633-3 -25035-2 0  9997
2 67697  97.2790 157.5018 0001662  64.7625 160.9986 16.00036582  2386
STARLINK-36697          
1 67698U 26025F   26047.16667824 -.01262222  50556-3 -24741-2 0  9993
2 67698  97.2789 157.5033 0001684  60.6406 168.1694 16.00211718  2335
STARLINK-36716          
1 67699U 26025G   26047.16667824 -.01258116  50379-3 -24347-2 0  9996
2 67699  97.2787 157.5050 0001487  64.5114 168.1841 16.00437475  2540
STARLINK-36712          
1 67700U 26025H   26047.16667824 -.01235624  48849-3 -23605-2 0  9993
2 67700  97.2786 157.5068 0001498  61.6463 174.8168 16.00660582  2338
