CCSDS_OMM_VERS = 2.0
CREATION_DATE  = 
ORIGINATOR     = 

OBJECT_NAME    = PRC TEST SPACECRAFT 4
OBJECT_ID      = 2026-024A
CENTER_NAME    = EARTH
REF_FRAME      = TEME
TIME_SYSTEM    = UTC
MEAN_ELEMENT_THEORY = SGP/SGP4

EPOCH          = 2026-02-16T04:34:16.348800
MEAN_MOTION    = 14.91673778
ECCENTRICITY   = .0006191
INCLINATION    = 49.9851
RA_OF_ASC_NODE = 123.6940
ARG_OF_PERICENTER = 277.3011
MEAN_ANOMALY   = 82.7226

EPHEMERIS_TYPE = 0
CLASSIFICATION_TYPE = U
NORAD_CAT_ID   = 67689
ELEMENT_SET_NO = 999
REV_AT_EPOCH   = 137
BSTAR          = .44761E-4
MEAN_MOTION_DOT = .211E-5
MEAN_MOTION_DDOT = 0

CCSDS_OMM_VERS = 2.0
CREATION_DATE  = 
ORIGINATOR     = 

OBJECT_NAME    = CZ-2F R/B
OBJECT_ID      = 2026-024B
CENTER_NAME    = EARTH
REF_FRAME      = TEME
TIME_SYSTEM    = UTC
MEAN_ELEMENT_THEORY = SGP/SGP4

EPOCH          = 2026-02-16T04:55:20.233056
MEAN_MOTION    = 15.33403625
ECCENTRICITY   = .0177089
INCLINATION    = 49.9874
RA_OF_ASC_NODE = 122.2826
ARG_OF_PERICENTER = 185.8809
MEAN_ANOMALY   = 174.0072

EPHEMERIS_TYPE = 0
CLASSIFICATION_TYPE = U
NORAD_CAT_ID   = 67690
ELEMENT_SET_NO = 999
REV_AT_EPOCH   = 139
BSTAR          = .45113E-3
MEAN_MOTION_DOT = .24321E-3
MEAN_MOTION_DDOT = 0

CCSDS_OMM_VERS = 2.0
CREATION_DATE  = 
ORIGINATOR     = 

OBJECT_NAME    = CZ-2F DEB
OBJECT_ID      = 2026-024C
CENTER_NAME    = EARTH
REF_FRAME      = TEME
TIME_SYSTEM    = UTC
MEAN_ELEMENT_THEORY = SGP/SGP4

EPOCH          = 2026-02-16T04:03:46.616256
MEAN_MOTION    = 15.67546662
ECCENTRICITY   = .0250026
INCLINATION    = 49.9080
RA_OF_ASC_NODE = 120.4884
ARG_OF_PERICENTER = 192.9787
MEAN_ANOMALY   = 166.4672

EPHEMERIS_TYPE = 0
CLASSIFICATION_TYPE = U
NORAD_CAT_ID   = 67691
ELEMENT_SET_NO = 999
REV_AT_EPOCH   = 140
BSTAR          = .93238E-3
MEAN_MOTION_DOT = .711547E-2
MEAN_MOTION_DDOT = .10306E-4

CCSDS_OMM_VERS = 2.0
CREATION_DATE  = 
ORIGINATOR     = 

OBJECT_NAME    = CZ-2F DEB
OBJECT_ID      = 2026-024D
CENTER_NAME    = EARTH
REF_FRAME      = TEME
TIME_SYSTEM    = UTC
MEAN_ELEMENT_THEORY = SGP/SGP4

EPOCH          = 2026-02-15T11:34:34.569984
MEAN_MOTION    = 15.15710043
ECCENTRICITY   = .0264941
INCLINATION    = 50.3154
RA_OF_ASC_NODE = 127.0852
ARG_OF_PERICENTER = 192.7826
MEAN_ANOMALY   = 266.1908

EPHEMERIS_TYPE = 0
CLASSIFICATION_TYPE = U
NORAD_CAT_ID   = 67692
ELEMENT_SET_NO = 999
REV_AT_EPOCH   = 62
BSTAR          = .50496E-2
MEAN_MOTION_DOT = .250388E-2
MEAN_MOTION_DDOT = 0

CCSDS_OMM_VERS = 2.0
CREATION_DATE  = 
ORIGINATOR     = 

OBJECT_NAME    = STARLINK-36748
OBJECT_ID      = 2026-025A
CENTER_NAME    = EARTH
REF_FRAME      = TEME
TIME_SYSTEM    = UTC
MEAN_ELEMENT_THEORY = SGP/SGP4

EPOCH          = 2026-02-16T04:00:00.999936
MEAN_MOTION    = 15.99093408
ECCENTRICITY   = .0001646
INCLINATION    = 97.2800
RA_OF_ASC_NODE = 157.4949
ARG_OF_PERICENTER = 61.0324
MEAN_ANOMALY   = 148.2884

EPHEMERIS_TYPE = 0
CLASSIFICATION_TYPE = U
NORAD_CAT_ID   = 67693
ELEMENT_SET_NO = 999
REV_AT_EPOCH   = 238
BSTAR          = -.27484E-2
MEAN_MOTION_DOT = -.1316054E-1
MEAN_MOTION_DDOT = .53942E-3

CCSDS_OMM_VERS = 2.0
CREATION_DATE  = 
ORIGINATOR     = 

OBJECT_NAME    = STARLINK-36753
OBJECT_ID      = 2026-025B
CENTER_NAME    = EARTH
REF_FRAME      = TEME
TIME_SYSTEM    = UTC
MEAN_ELEMENT_THEORY = SGP/SGP4

EPOCH          = 2026-02-16T04:00:00.999936
MEAN_MOTION    = 15.99800029
ECCENTRICITY   = .0001606
INCLINATION    = 97.2792
RA_OF_ASC_NODE = 157.5003
ARG_OF_PERICENTER = 58.9576
MEAN_ANOMALY   = 162.6694

EPHEMERIS_TYPE = 0
CLASSIFICATION_TYPE = U
NORAD_CAT_ID   = 67694
ELEMENT_SET_NO = 999
REV_AT_EPOCH   = 254
BSTAR          = -.25722E-2
MEAN_MOTION_DOT = -.1281849E-1
MEAN_MOTION_DDOT = .51781E-3

CCSDS_OMM_VERS = 2.0
CREATION_DATE  = 
ORIGINATOR     = 

OBJECT_NAME    = STARLINK-36750
OBJECT_ID      = 2026-025C
CENTER_NAME    = EARTH
REF_FRAME      = TEME
TIME_SYSTEM    = UTC
MEAN_ELEMENT_THEORY = SGP/SGP4

EPOCH          = 2026-02-16T04:00:00.999936
MEAN_MOTION    = 15.99350454
ECCENTRICITY   = .0001504
INCLINATION    = 97.2797
RA_OF_ASC_NODE = 157.4967
ARG_OF_PERICENTER = 65.2456
MEAN_ANOMALY   = 148.5713

EPHEMERIS_TYPE = 0
CLASSIFICATION_TYPE = U
NORAD_CAT_ID   = 67695
ELEMENT_SET_NO = 999
REV_AT_EPOCH   = 238
BSTAR          = -.26691E-2
MEAN_MOTION_DOT = -.1296801E-1
MEAN_MOTION_DDOT = .5264E-3

CCSDS_OMM_VERS = 2.0
CREATION_DATE  = 
ORIGINATOR     = 

OBJECT_NAME    = STARLINK-36401
OBJECT_ID      = 2026-025D
CENTER_NAME    = EARTH
REF_FRAME      = TEME
TIME_SYSTEM    = UTC
MEAN_ELEMENT_THEORY = SGP/SGP4

EPOCH          = 2026-02-16T04:00:00.999936
MEAN_MOTION    = 15.99554461
ECCENTRICITY   = .0001546
INCLINATION    = 97.2795
RA_OF_ASC_NODE = 157.4983
ARG_OF_PERICENTER = 66.0066
MEAN_ANOMALY   = 151.5069

EPHEMERIS_TYPE = 0
CLASSIFICATION_TYPE = U
NORAD_CAT_ID   = 67696
ELEMENT_SET_NO = 999
REV_AT_EPOCH   = 238
BSTAR          = -.26029E-2
MEAN_MOTION_DOT = -.127939E-1
MEAN_MOTION_DDOT = .51457E-3

CCSDS_OMM_VERS = 2.0
CREATION_DATE  = 
ORIGINATOR     = 

OBJECT_NAME    = STARLINK-36704
OBJECT_ID      = 2026-025E
CENTER_NAME    = EARTH
REF_FRAME      = TEME
TIME_SYSTEM    = UTC
MEAN_ELEMENT_THEORY = SGP/SGP4

EPOCH          = 2026-02-16T04:00:00.999936
MEAN_MOTION    = 16.00036582
ECCENTRICITY   = .0001662
INCLINATION    = 97.2790
RA_OF_ASC_NODE = 157.5018
ARG_OF_PERICENTER = 64.7625
MEAN_ANOMALY   = 160.9986

EPHEMERIS_TYPE = 0
CLASSIFICATION_TYPE = U
NORAD_CAT_ID   = 67697
ELEMENT_SET_NO = 999
REV_AT_EPOCH   = 238
BSTAR          = -.25035E-2
MEAN_MOTION_DOT = -.12646E-1
MEAN_MOTION_DDOT = .50633E-3

CCSDS_OMM_VERS = 2.0
CREATION_DATE  = 
ORIGINATOR     = 

OBJECT_NAME    = STARLINK-36697
OBJECT_ID      = 2026-025F
CENTER_NAME    = EARTH
REF_FRAME      = TEME
TIME_SYSTEM    = UTC
MEAN_ELEMENT_THEORY = SGP/SGP4

EPOCH          = 2026-02-16T04:00:00.999936
MEAN_MOTION    = 16.00211718
ECCENTRICITY   = .0001684
INCLINATION    = 97.2789
RA_OF_ASC_NODE = 157.5033
ARG_OF_PERICENTER = 60.6406
MEAN_ANOMALY   = 168.1694

EPHEMERIS_TYPE = 0
CLASSIFICATION_TYPE = U
NORAD_CAT_ID   = 67698
ELEMENT_SET_NO = 999
REV_AT_EPOCH   = 233
BSTAR          = -.24741E-2
MEAN_MOTION_DOT = -.1262222E-1
MEAN_MOTION_DDOT = .50556E-3

CCSDS_OMM_VERS = 2.0
CREATION_DATE  = 
ORIGINATOR     = 

OBJECT_NAME    = STARLINK-36716
OBJECT_ID      = 2026-025G
CENTER_NAME    = EARTH
REF_FRAME      = TEME
TIME_SYSTEM    = UTC
MEAN_ELEMENT_THEORY = SGP/SGP4

EPOCH          = 2026-02-16T04:00:00.999936
MEAN_MOTION    = 16.00437475
ECCENTRICITY   = .0001487
INCLINATION    = 97.2787
RA_OF_ASC_NODE = 157.5050
ARG_OF_PERICENTER = 64.5114
MEAN_ANOMALY   = 168.1841

EPHEMERIS_TYPE = 0
CLASSIFICATION_TYPE = U
NORAD_CAT_ID   = 67699
ELEMENT_SET_NO = 999
REV_AT_EPOCH   = 254
BSTAR          = -.24347E-2
MEAN_MOTION_DOT = -.1258116E-1
MEAN_MOTION_DDOT = .50379E-3

CCSDS_OMM_VERS = 2.0
CREATION_DATE  = 
ORIGINATOR     = 

OBJECT_NAME    = STARLINK-36712
OBJECT_ID      = 2026-025H
CENTER_NAME    = EARTH
REF_FRAME      = TEME
TIME_SYSTEM    = UTC
MEAN_ELEMENT_THEORY = SGP/SGP4

EPOCH          = 2026-02-16T04:00:00.999936
MEAN_MOTION    = 16.00660582
ECCENTRICITY   = .0001498
INCLINATION    = 97.2786
RA_OF_ASC_NODE = 157.5068
ARG_OF_PERICENTER = 61.6463
MEAN_ANOMALY   = 174.8168

EPHEMERIS_TYPE = 0
CLASSIFICATION_TYPE = U
NORAD_CAT_ID   = 67700
ELEMENT_SET_NO = 999
REV_AT_EPOCH   = 233
BSTAR          = -.23605E-2
MEAN_MOTION_DOT = -.1235624E-1
MEAN_MOTION_DDOT = .48849E-3

